OBJECT_NAME,OBJECT_ID,EPOCH,MEAN_MOTION,ECCENTRICITY,INCLINATION,RA_OF_ASC_NODE,ARG_OF_PERICENTER,MEAN_ANOMALY,EPHEMERIS_TYPE,CLASSIFICATION_TYPE,NORAD_CAT_ID,ELEMENT_SET_NO,REV_AT_EPOCH,BSTAR,MEAN_MOTION_DOT,MEAN_MOTION_DDOT
BEIDOU-3 M28 (C50),2023-207A,2026-06-13T00:05:10.893120,1.86229633,.0003374,55.7492,62.4443,346.0621,13.9544,0,U,58654,999,1676,0,-.57E-6,0
BEIDOU-3 M26 (C48),2023-207B,2026-06-10T02:47:28.483296,1.86229681,.0003349,55.7488,62.5282,318.7202,41.2779,0,U,58655,999,1669,0,-.52E-6,0
GSAT0225 (GALILEO 29),2024-079A,2026-06-09T11:34:01.814016,1.70474016,.00017346,55.1155,101.2960,292.0981,244.7042,0,U,59598,999,1318,0,.21E-6,0
GSAT0227 (GALILEO 30),2024-079C,2026-06-08T04:53:54.670272,1.70474042,.00019208,55.1096,101.3297,44.5115,315.4782,0,U,59600,999,1321,0,.25E-6,0
GSAT0232 (GALILEO 32),2024-167A,2026-06-13T03:47:18.748032,1.70474201,.00061615,55.1859,221.4246,225.9624,149.8375,0,U,61182,999,1081,0,.62E-6,0
GSAT0226 (GALILEO 31),2024-167B,2026-06-13T13:42:54.740160,1.70474141,.00029404,55.1847,221.4204,226.4418,134.5375,0,U,61183,999,1079,0,.62E-6,0
BEIDOU-3 M25 (C47),2024-168B,2026-06-12T20:05:08.326752,1.86229830,.00030001,54.4778,302.3939,301.8949,199.4569,0,U,61186,999,1170,0,-.69E-6,0
COSMOS 2584 (704K),2025-042A,2026-06-08T05:23:06.412992,2.13103875,.00058283,65.0792,73.1067,228.4476,131.5246,0,U,63130,999,985,0,-.15E-6,0
GPS BIII-8  (PRN 21),2025-116A,2026-06-12T09:20:58.319232,2.00576015,.00085633,55.2312,31.3239,338.8161,228.7168,0,U,64202,999,777,0,-.65E-6,0
GSAT0233 (GALILEO 33),2025-302A,2026-06-10T04:32:57.811200,1.70474067,.00010848,54.3297,102.3310,234.5697,307.3496,0,U,67160,999,300,0,.19E-6,0
GSAT0234 (GALILEO 34),2025-302C,2026-06-13T10:52:17.585184,1.70473927,.00030571,54.3351,102.2367,308.5206,256.3467,0,U,67162,999,311,0,-.6E-7,0
GPS BIII-9  (PRN 20),2026-017A,2026-06-13T05:00:40.049568,2.00571123,.00221476,55.0859,88.9150,258.0590,101.6773,0,U,67588,999,43153,0,-.28E-6,0
GPS BIII-10 (PRN 13),2026-087A,2026-06-07T10:32:17.680992,2.00569573,.00209312,54.9638,208.1735,107.2972,251.8874,0,U,68791,999,63,0,.57E-6,0
